COSMOS 2576             
1 59773U 24092A   26068.82603826  .00015211  00000+0  56283-3 0  9991
2 59773  97.4253 186.0053 0005946 159.7731 200.3745 15.27760963101271
STARLINK-32733          
1 62477U 24254R   26068.66670139  .00043195  00000+0  15721-2 0  9992
2 62477  43.0020  16.1192 0001509 263.1440 104.9916 15.27536121  5875
